0 FENGYUN 1C DEB
1 36666U 99025DYL 13281.43086954  .00067650  00000-0  23488-2 0  2710
2 36666 098.3199 350.5276 0216084 145.6072 273.3319 15.10170311312174
0 FENGYUN 1C DEB
1 36666U 99025DYL 13286.68040374  .00079085  00000-0  26971-2 0  2724
2 36666 098.3196 356.2341 0213468 127.8761 021.9347 15.11055457312977
0 FENGYUN 1C DEB
1 36666U 99025DYL 13287.67382618  .00098104  00000-0  33317-2 0  2730
2 36666 098.3196 357.3152 0212845 124.5521 026.2306 15.11215174313120
0 FENGYUN 1C DEB
1 36666U 99025DYL 13288.45128593  .00113590  00000-0  38423-2 0  2748
2 36666 098.3196 358.1613 0212223 121.9646 296.1417 15.11380346313237
0 FENGYUN 1C DEB
1 36666U 99025DYL 13289.44457414  .00102494  00000-0  34605-2 0  2755
2 36666 098.3195 359.2424 0211571 118.6133 300.9742 15.11566670313384
0 FENGYUN 1C DEB
1 36666U 99025DYL 13290.16723808  .00098583  00000-0  33229-2 0  2764
2 36666 098.3194 000.0293 0211149 116.1535 273.6550 15.11690970313494
0 FENGYUN 1C DEB
1 36666U 99025DYL 13291.43085884  .00094630  00000-0  31770-2 0  2779
2 36666 098.3192 001.4055 0210487 111.8967 310.9576 15.11919195313685
0 FENGYUN 1C DEB
1 36666U 99025DYL 13292.15334112  .00086399  00000-0  28953-2 0  2783
2 36666 098.3190 002.1924 0210155 109.4291 283.5804 15.12048138313793
0 FENGYUN 1C DEB
1 36666U 99025DYL 13295.40093869  .00099829  00000-0  33082-2 0  2797
2 36666 098.3169 005.7312 0208667 098.4718 324.6560 15.12558143314288
